#aV2007 10 14  0  0   .00000000      96 DD+AD WGS84 FIT  NGA
## 1449       .00000000   900.00000000 54387  .0000000000000
+   31     1  2  3  4  5  6  7  8  9 10 11 12 13 14 16 17 18
+         19 20 21 22 23 24 25 26 27 28 29 30 31 32  0  0  0
+          0  0  0  0  0  0  0  0  0  0  0  0  0  0  0  0  0
+          0  0  0  0  0  0  0  0  0  0  0  0  0  0  0  0  0
+          0  0  0  0  0  0  0  0  0  0  0  0  0  0  0  0  0
++         0  0  0  0  0  0  0  0  0  0  0  0  0  0  0  0  0
++         0  0  0  0  0  0  0  0  0  0  0  0  0  0  0  0  0
++         0  0  0  0  0  0  0  0  0  0  0  0  0  0  0  0  0
++         0  0  0  0  0  0  0  0  0  0  0  0  0  0  0  0  0
++         0  0  0  0  0  0  0  0  0  0  0  0  0  0  0  0  0
%c cc cc ccc ccc cccc cccc cccc cccc ccccc ccccc ccccc ccccc
%c cc cc ccc ccc cccc cccc cccc cccc ccccc ccccc ccccc ccccc
%f  0.0000000  0.000000000  0.00000000000  0.000000000000000
%f  0.0000000  0.000000000  0.00000000000  0.000000000000000
%i    0    0    0    0      0      0      0      0         0
%i    0    0    0    0      0      0      0      0         0
/*      NGA, ST. LOUIS,MO.                                  
/*   EPHEMERIS COMPUTED FROM  3 DAYS OF DATA                
/* CCCCCCCCCCCCCCCCCCCCCCCCCCCCCCCCCCCCCCCCCCCCCCCCCCCCCCCCC
/* CCCCCCCCCCCCCCCCCCCCCCCCCCCCCCCCCCCCCCCCCCCCCCCCCCCCCCCCC
*  2007 10 14 14  0   .00000000                                                 
P  1  17168.889580 -20142.614716   1816.920094    159.421827                    
V  1   2784.906810   -196.270253 -32359.276185       .029290                    
P  2  -8553.780475  13780.303617  20791.531038    143.594862                    
V  2 -26418.640106  -5426.768498  -7511.731034       .027712                    
P  3   8187.668230 -23623.666172  -8663.555443    129.499418                    
V  3   9243.268217  -6834.773978  28472.348892       .055089                    
P  4 -20596.065982   7335.485365  15252.625311    -13.810910                    
V  4 -18666.064835  -5697.726430 -21995.905149      -.036184                    
P  5  16089.143985  19171.069740   8844.571927    468.396892                    
V  5   2096.263315  11802.991501 -28415.947622       .286914                    
P  6  16664.309907   3377.564260  20593.339607    236.519033                    
V  6 -15049.116142  21023.061252   8779.673300      -.053342                    
P  7  17670.723303   1057.012516  20149.704004    -52.650100                    
V  7 -13796.931181  20801.167004  11159.218512       .150435                    
P  8 -25216.725318    570.345103  -9148.152096   -126.435633                    
V  8 -10663.289316  -4082.455413  29031.863454      -.014353                    
P  9  14179.661780  14408.672146 -17935.841092     92.049809                    
V  9 -21449.598735  -1684.769370 -18786.755078       .017203                    
P 10   -829.224316  23474.509582  11962.952043   -107.435753                    
V 10  -7265.048722 -13892.280896  26812.351581      -.135098                    
P 11 -17016.813856 -12906.288456 -16093.061764     24.873299                    
V 11  20333.815671  -2943.376521 -18971.076130       .005060                    
P 12  11972.035721  23298.209105   4700.985720   -344.822835                    
V 12   -492.017026   6398.896073 -30991.673128      -.012933                    
P 13 -16148.915752  -2348.462262  20845.851027    213.768998                    
V 13  17460.802525 -20112.318099  11226.910842       .027964                    
P 14  20493.479287 -13826.923161  -9479.765907   -326.826834                    
V 14  -6675.115937  10338.781002 -29315.134307       .024513                    
P 16   4799.235645 -20485.377825  16182.716831    119.557815                    
V 16   8502.541810  18723.113863  21432.219363       .020619                    
P 17 -20665.100236  12601.702867 -10755.441550     51.763742                    
V 17   6954.477810 -12121.866110 -27655.437219      -.010093                    
P 18  16755.581652   8953.459113 -18535.758818   -231.299156                    
V 18   5861.143075  23100.608953  15963.978460       .020162                    
P 19   1451.693183 -19551.693123 -17757.779884      1.163183                    
V 19  17064.884021 -15218.354850  18203.319771       .022547                    
P 20 -13782.635241 -21465.775819   7365.118997    127.917771                    
V 20   -607.247782  -9921.621274 -29606.717030      -.006156                    
P 21  26117.681144   6287.166220   1197.254198     77.569705                    
V 21  -1904.954031   2679.197011  30820.079796      -.003343                    
P 22  14100.757100  -6393.374147 -21415.945020    200.491599                    
V 22   8478.286663  26295.507271  -2293.188724       .008316                    
P 23  -8534.686631 -12755.460934  21579.312257    299.800666                    
V 23  18156.570557 -20752.153326  -5294.101538       .036177                    
P 24  20095.279938  12938.216593  11462.640939     38.212755                    
V 24 -14621.641425   -566.246182  27012.238485       .029329                    
P 25 -24202.246058  -7541.056450   8022.871141    461.252771                    
V 25   9918.672710  -1874.849703  29642.992120       .075739                    
P 26  -3846.957740  20397.326691 -16685.941967     61.441972                    
V 26 -14813.742194  14228.298531  21926.602621       .128545                    
P 27 -26352.000250  -4035.251459   1496.027346    141.216529                    
V 27   1372.180294  -2316.591398  31665.854128       .024534                    
P 28 -14996.193055   2363.510492 -21469.151132     -8.583427                    
V 28  -8821.479603 -26638.015765   2838.439881      -.006385                    
P 29  -7822.531262  21838.008966 -12360.877565      6.024359                    
V 29 -11865.154406  11077.240854  27039.095218       .001786                    
P 30  16915.485984  14631.038781  14074.653518     48.960284                    
V 30   4652.567948  18004.975222 -23651.671946       .013219                    
P 31  17835.155456  -9305.399189  17578.223864      6.113737                    
V 31  21320.034449   5201.086484 -19023.580386      -.013227                    
P 32   7971.601399 -17421.120842 -17985.184622     99.766874                    
V 32   7617.089281  22509.885328 -17826.915181       .150381                    
EOF
